{
  "fetched_at": "2026-05-24T02:05:44.175778+00:00",
  "satellites": {
    "57166": {
      "name": "Meteor M2-3",
      "tle_line1": "1 57166U 23091A   26143.85796049 -.00000017  00000+0  11297-4 0  9996",
      "tle_line2": "2 57166  98.6095 199.3320 0003007 229.4652 130.6265 14.24044367151051"
    },
    "59051": {
      "name": "Meteor M2-4",
      "tle_line1": "1 59051U 24039A   26143.49335569 -.00000002  00000+0  18981-4 0  9991",
      "tle_line2": "2 59051  98.6998 103.1040 0006027 237.0363 123.0236 14.22426609115751"
    },
    "38771": {
      "name": "MetOp-B",
      "tle_line1": "1 38771U 12049A   26143.83416616  .00000070  00000+0  51754-4 0  9995",
      "tle_line2": "2 38771  98.6518 195.8173 0003350  71.6568 288.4973 14.21425049709800"
    },
    "43689": {
      "name": "MetOp-C",
      "tle_line1": "1 43689U 18087A   26143.78433346  .00000055  00000+0  44903-4 0  9991",
      "tle_line2": "2 43689  98.6656 203.8321 0000713 150.4962 209.6256 14.21504473391362"
    },
    "60543": {
      "name": "Arctic Weather Satellite",
      "tle_line1": "1 60543U 24149CD  26143.43711106  .00000546  00000+0  62501-4 0  9999",
      "tle_line2": "2 60543  97.6806 214.6089 0002535 154.1981 205.9364 14.89807772 95613"
    }
  }
}